[{"OBJECT_NAME":"FORMOSAT 7-2","OBJECT_ID":"2019-036N","EPOCH":"2026-03-09T11:02:55.703616","MEAN_MOTION":14.96019264,"ECCENTRICITY":9.711e-5,"INCLINATION":23.9982,"RA_OF_ASC_NODE":100.9036,"ARG_OF_PERICENTER":99.0828,"MEAN_ANOMALY":260.9782,"EPHEMERIS_TYPE":0,"CLASSIFICATION_TYPE":"U","NORAD_CAT_ID":44351,"ELEMENT_SET_NO":999,"REV_AT_EPOCH":36863,"BSTAR":0.00030629276,"MEAN_MOTION_DOT":3.823e-5,"MEAN_MOTION_DDOT":0},{"OBJECT_NAME":"STARLINK-32551","OBJECT_ID":"2024-225D","EPOCH":"2026-03-09T16:03:04.945536","MEAN_MOTION":14.98326828,"ECCENTRICITY":0.00026635,"INCLINATION":70.0041,"RA_OF_ASC_NODE":164.4454,"ARG_OF_PERICENTER":277.7203,"MEAN_ANOMALY":82.3654,"EPHEMERIS_TYPE":0,"CLASSIFICATION_TYPE":"U","NORAD_CAT_ID":62166,"ELEMENT_SET_NO":999,"REV_AT_EPOCH":6987,"BSTAR":0.00042814672,"MEAN_MOTION_DOT":5.019e-5,"MEAN_MOTION_DDOT":0}]
